#aV2006  2 20  0  0   .00000000      96 DD+AD WGS84 FIT  NGA
## 1363  86400.00000000   900.00000000 53786  .0000000000000
+   29     1  2  3  4  5  6  7  8  9 10 11 13 14 15 16 17 18
+         19 20 21 22 23 24 25 26 27 28 29 30  0  0  0  0  0
+          0  0  0  0  0  0  0  0  0  0  0  0  0  0  0  0  0
+          0  0  0  0  0  0  0  0  0  0  0  0  0  0  0  0  0
+          0  0  0  0  0  0  0  0  0  0  0  0  0  0  0  0  0
++         0  0  0  0  0  0  0  0  0  0  0  0  0  0  0  0  0
++         0  0  0  0  0  0  0  0  0  0  0  0  0  0  0  0  0
++         0  0  0  0  0  0  0  0  0  0  0  0  0  0  0  0  0
++         0  0  0  0  0  0  0  0  0  0  0  0  0  0  0  0  0
++         0  0  0  0  0  0  0  0  0  0  0  0  0  0  0  0  0
%c cc cc ccc ccc cccc cccc cccc cccc ccccc ccccc ccccc ccccc
%c cc cc ccc ccc cccc cccc cccc cccc ccccc ccccc ccccc ccccc
%f  0.0000000  0.000000000  0.00000000000  0.000000000000000
%f  0.0000000  0.000000000  0.00000000000  0.000000000000000
%i    0    0    0    0      0      0      0      0         0
%i    0    0    0    0      0      0      0      0         0
/*      NGA, ST. LOUIS,MO.                                  
/*   EPHEMERIS COMPUTED FROM  3 DAYS OF DATA                
/* CCCCCCCCCCCCCCCCCCCCCCCCCCCCCCCCCCCCCCCCCCCCCCCCCCCCCCCCC
/* CCCCCCCCCCCCCCCCCCCCCCCCCCCCCCCCCCCCCCCCCCCCCCCCCCCCCCCCC
*  2006  2 20 19 15   .00000000                                                 
P  1 -15621.048803  21336.905867   2427.805326     37.732735                    
V  1  -3350.366662    901.543590 -32153.078938       .019613                    
P  2  10518.266384 -13162.969335  20216.845930    -17.730010                    
V  2  25985.632477   4607.513004 -10552.648381       .015544                    
P  3  -9754.860412  23817.757861  -6043.869636     76.305670                    
V  3  -7416.647772   4266.687900  29871.656835       .029134                    
P  4  20865.517189  -7540.412470  14826.012317    155.350424                    
V  4  18248.824857   4858.375474 -22803.843587       .116374                    
P  5 -13766.509696 -22639.175236   2673.142067   -513.952052                    
V  5   1367.805663  -4764.536602 -30889.789171       .879071                    
P  6 -15298.739814  -5572.502210  21183.177370    342.208325                    
V  6  15069.168320 -21872.985272   5095.240277       .336150                    
P  7    867.060980 -21730.497416  15606.515796    499.570836                    
V  7  12834.762561 -14500.429317 -21575.612528       .078404                    
P  8  25556.761279  -1113.649134  -8024.506083    -57.256064                    
V  8   9387.969143   3619.801058  29554.345357      -.011244                    
P  9 -12378.713301 -14601.814107 -19066.586111      8.664320                    
V  9  23014.211118   1014.837289 -15890.039804       .016878                    
P 10    109.406015 -23197.248514  12552.192586     79.001467                    
V 10   7895.661994  14283.961338  26453.348498       .005231                    
P 11  14067.484341  14044.328875 -17783.100691    308.311577                    
V 11 -22600.142587   2528.153369 -15688.909709       .026974                    
P 13  15181.682570   3516.009164  21420.941150     42.634657                    
V 13 -16726.313746  21593.330831   8339.507569       .024701                    
P 14 -19945.035759  13438.299528 -11151.093912    -19.108620                    
V 14   7365.738503 -12329.400908 -27900.320866       .006460                    
P 15 -25744.908509    -55.836260  -7459.155757    568.947856                    
V 15  -8462.101650  -4237.364266  29549.266179       .058437                    
P 16  -5516.269562  19125.031257  17623.392729     27.442955                    
V 16  -9870.663381 -20005.114453  18796.498043       .018676                    
P 17  20155.259212 -11967.567828 -12431.017898     54.721328                    
V 17  -7720.935249  13971.472907 -26095.242748       .073228                    
P 18 -16896.342692 -11203.015276 -17215.201053   -221.831188                    
V 18  -5959.774650 -21173.330175  19232.987133      -.020881                    
P 19  -1409.303764  20079.242141 -17209.184399    -21.023987                    
V 19 -15834.090010  15482.365247  19280.906670       .009992                    
P 20  12569.623365  23114.353364   3659.586121    -32.290309                    
V 20   -751.762654   5476.418433 -31239.297097       .008706                    
P 21 -26114.414566  -5920.953022   1903.062535      7.211364                    
V 21   2794.075126  -2444.511139  30931.776409       .033456                    
P 22 -14750.122101   3915.777625 -21581.221539     70.100020                    
V 22  -9113.874615 -26255.429970   1456.924282       .027893                    
P 23   6973.887433  14619.022759  20930.667204    149.728933                    
V 23 -16936.616929  20780.630158  -8981.099528      -.014013                    
P 24  26401.495006   2623.288828   3203.595829     87.085310                    
V 24   3219.339578   3197.184784 -31253.993303       .030292                    
P 25 -17442.230684  11370.851424  16958.053893    -91.179107                    
V 25 -20660.584066  -2598.644063 -19877.300423       .365355                    
P 26   4611.168569 -21394.401234 -14975.110068    -42.230572                    
V 26  12975.560961 -13373.718676  24261.032234      -.088112                    
P 27  26236.887017   4355.444542   3499.433605     36.701890                    
V 27  -3847.534849   2284.499228  31035.387335       .016736                    
P 28  15870.566085     88.247434 -21077.451020     32.935197                    
V 28   9523.125747  25633.431085   6845.080383      -.007263                    
P 29   8209.478222 -22648.468061 -10642.043188    539.531807                    
V 29   9994.020976  -9924.117699  28426.386001       .116489                    
P 30 -16810.540612 -16973.211685  11452.961926     25.947909                    
V 30  -3629.538507 -14777.057352 -26475.845821       .018731                    
EOF
